STARLINK-30494          
1 57970U 23151G   26068.36049035 -.00001272  00000+0 -35691-4 0  9993
2 57970  43.0027 192.4566 0001155 241.5536 118.5200 15.28417441137406
STARLINK-30783          
1 58130U 23162N   26068.21921962  .00009192  00000+0  34332-3 0  9993
2 58130  43.0004 131.8664 0000579  38.3391 321.7502 15.27561850132272
